[{"OBJECT_NAME":"STARLINK-3085","OBJECT_ID":"2021-082AC","EPOCH":"2026-03-09T22:37:55.126560","MEAN_MOTION":14.98328842,"ECCENTRICITY":0.00023031,"INCLINATION":69.999,"RA_OF_ASC_NODE":253.8076,"ARG_OF_PERICENTER":261.0432,"MEAN_ANOMALY":99.0466,"EPHEMERIS_TYPE":0,"CLASSIFICATION_TYPE":"U","NORAD_CAT_ID":49156,"ELEMENT_SET_NO":999,"REV_AT_EPOCH":24808,"BSTAR":1.6089864e-5,"MEAN_MOTION_DOT":9.9e-7,"MEAN_MOTION_DDOT":0},{"OBJECT_NAME":"SHIYAN-24C 02","OBJECT_ID":"2023-206B","EPOCH":"2026-03-09T21:24:07.715808","MEAN_MOTION":14.97980163,"ECCENTRICITY":0.0003465,"INCLINATION":97.3985,"RA_OF_ASC_NODE":41.8071,"ARG_OF_PERICENTER":80.6641,"MEAN_ANOMALY":279.4974,"EPHEMERIS_TYPE":0,"CLASSIFICATION_TYPE":"U","NORAD_CAT_ID":58651,"ELEMENT_SET_NO":999,"REV_AT_EPOCH":12044,"BSTAR":0.00023935,"MEAN_MOTION_DOT":2.77e-5,"MEAN_MOTION_DDOT":0}]
